ORBCOMM FM33            
1 25983U 99065D   24279.02374090  .00007467  00000+0  24637-2 0  9992
2 25983  45.0266 130.8915 0008553 213.4677 146.5632 14.38504369299303
ORBCOMM FM36            
1 25984U 99065E   24279.55411955  .00008779  00000+0  30061-2 0  9998
2 25984  45.0387 216.3594 0002886  73.3426 286.7739 14.36538187297787
ORBCOMM FM35            
1 25985U 99065F   24279.30249164  .00006639  00000+0  23173-2 0  9992
2 25985  45.0388 220.7947 0002724 225.6205 134.4420 14.35850420298130
ORBCOMM FM34            
1 25986U 99065G   24279.55307316  .00006926  00000+0  24149-2 0  9997
2 25986  45.0382 220.1608 0002148 142.5586 217.5412 14.35861350298286
ORBCOMM FM38            
1 33060U 08031A   24279.47341239  .00011475  00000+0  15651-2 0  9998
2 33060  48.4392  87.2027 0004546  18.4635 341.6444 14.78913265877011
ORBCOMM FM41            
1 33061U 08031B   24279.56012337  .00008865  00000+0  12248-2 0  9991
2 33061  48.4423  93.7703 0003897   1.3307  67.9155 14.78607261876523
ORBCOMM FM29            
1 33062U 08031C   24279.47625650  .00010955  00000+0  15068-2 0  9996
2 33062  48.4373 102.1913 0005673   3.2896  15.7767 14.78591595876425
ORBCOMM FM39            
1 33063U 08031D   24279.54548505  .00008568  00000+0  12177-2 0  9993
2 33063  48.4386 123.5805 0006813 338.8396  21.2235 14.77430028876116
