<?xml version="1.0" encoding="UTF-8"?>
<ndm xmlns:xsi="http://www.w3.org/2001/XMLSchema-instance" xsi:noNamespaceSchemaLocation="https://sanaregistry.org/r/ndmxml_unqualified/ndmxml-2.0.0-master-2.0.xsd">
<omm id="CCSDS_OMM_VERS" version="2.0">
<header><CREATION_DATE/><ORIGINATOR/></header><body><segment><metadata><OBJECT_NAME>ORBCOMM FM33</OBJECT_NAME><OBJECT_ID>1999-065D</OBJECT_ID><CENTER_NAME>EARTH</CENTER_NAME><REF_FRAME>TEME</REF_FRAME><TIME_SYSTEM>UTC</TIME_SYSTEM><MEAN_ELEMENT_THEORY>SGP4</MEAN_ELEMENT_THEORY></metadata><data><meanElements><EPOCH>2024-10-05T00:34:11.213760</EPOCH><MEAN_MOTION>14.38504369</MEAN_MOTION><ECCENTRICITY>.0008553</ECCENTRICITY><INCLINATION>45.0266</INCLINATION><RA_OF_ASC_NODE>130.8915</RA_OF_ASC_NODE><ARG_OF_PERICENTER>213.4677</ARG_OF_PERICENTER><MEAN_ANOMALY>146.5632</MEAN_ANOMALY></meanElements><tleParameters><EPHEMERIS_TYPE>0</EPHEMERIS_TYPE><CLASSIFICATION_TYPE>U</CLASSIFICATION_TYPE><NORAD_CAT_ID>25983</NORAD_CAT_ID><ELEMENT_SET_NO>999</ELEMENT_SET_NO><REV_AT_EPOCH>29930</REV_AT_EPOCH><BSTAR>.24637E-2</BSTAR><MEAN_MOTION_DOT>.7467E-4</MEAN_MOTION_DOT><MEAN_MOTION_DDOT>0</MEAN_MOTION_DDOT></tleParameters></data></segment></body></omm>
<omm id="CCSDS_OMM_VERS" version="2.0">
<header><CREATION_DATE/><ORIGINATOR/></header><body><segment><metadata><OBJECT_NAME>ORBCOMM FM36</OBJECT_NAME><OBJECT_ID>1999-065E</OBJECT_ID><CENTER_NAME>EARTH</CENTER_NAME><REF_FRAME>TEME</REF_FRAME><TIME_SYSTEM>UTC</TIME_SYSTEM><MEAN_ELEMENT_THEORY>SGP4</MEAN_ELEMENT_THEORY></metadata><data><meanElements><EPOCH>2024-10-05T13:17:55.929120</EPOCH><MEAN_MOTION>14.36538187</MEAN_MOTION><ECCENTRICITY>.0002886</ECCENTRICITY><INCLINATION>45.0387</INCLINATION><RA_OF_ASC_NODE>216.3594</RA_OF_ASC_NODE><ARG_OF_PERICENTER>73.3426</ARG_OF_PERICENTER><MEAN_ANOMALY>286.7739</MEAN_ANOMALY></meanElements><tleParameters><EPHEMERIS_TYPE>0</EPHEMERIS_TYPE><CLASSIFICATION_TYPE>U</CLASSIFICATION_TYPE><NORAD_CAT_ID>25984</NORAD_CAT_ID><ELEMENT_SET_NO>999</ELEMENT_SET_NO><REV_AT_EPOCH>29778</REV_AT_EPOCH><BSTAR>.30061E-2</BSTAR><MEAN_MOTION_DOT>.8779E-4</MEAN_MOTION_DOT><MEAN_MOTION_DDOT>0</MEAN_MOTION_DDOT></tleParameters></data></segment></body></omm>
<omm id="CCSDS_OMM_VERS" version="2.0">
<header><CREATION_DATE/><ORIGINATOR/></header><body><segment><metadata><OBJECT_NAME>ORBCOMM FM35</OBJECT_NAME><OBJECT_ID>1999-065F</OBJECT_ID><CENTER_NAME>EARTH</CENTER_NAME><REF_FRAME>TEME</REF_FRAME><TIME_SYSTEM>UTC</TIME_SYSTEM><MEAN_ELEMENT_THEORY>SGP4</MEAN_ELEMENT_THEORY></metadata><data><meanElements><EPOCH>2024-10-05T07:15:35.277696</EPOCH><MEAN_MOTION>14.35850420</MEAN_MOTION><ECCENTRICITY>.0002724</ECCENTRICITY><INCLINATION>45.0388</INCLINATION><RA_OF_ASC_NODE>220.7947</RA_OF_ASC_NODE><ARG_OF_PERICENTER>225.6205</ARG_OF_PERICENTER><MEAN_ANOMALY>134.4420</MEAN_ANOMALY></meanElements><tleParameters><EPHEMERIS_TYPE>0</EPHEMERIS_TYPE><CLASSIFICATION_TYPE>U</CLASSIFICATION_TYPE><NORAD_CAT_ID>25985</NORAD_CAT_ID><ELEMENT_SET_NO>999</ELEMENT_SET_NO><REV_AT_EPOCH>29813</REV_AT_EPOCH><BSTAR>.23173E-2</BSTAR><MEAN_MOTION_DOT>.6639E-4</MEAN_MOTION_DOT><MEAN_MOTION_DDOT>0</MEAN_MOTION_DDOT></tleParameters></data></segment></body></omm>
<omm id="CCSDS_OMM_VERS" version="2.0">
<header><CREATION_DATE/><ORIGINATOR/></header><body><segment><metadata><OBJECT_NAME>ORBCOMM FM34</OBJECT_NAME><OBJECT_ID>1999-065G</OBJECT_ID><CENTER_NAME>EARTH</CENTER_NAME><REF_FRAME>TEME</REF_FRAME><TIME_SYSTEM>UTC</TIME_SYSTEM><MEAN_ELEMENT_THEORY>SGP4</MEAN_ELEMENT_THEORY></metadata><data><meanElements><EPOCH>2024-10-05T13:16:25.521024</EPOCH><MEAN_MOTION>14.35861350</MEAN_MOTION><ECCENTRICITY>.0002148</ECCENTRICITY><INCLINATION>45.0382</INCLINATION><RA_OF_ASC_NODE>220.1608</RA_OF_ASC_NODE><ARG_OF_PERICENTER>142.5586</ARG_OF_PERICENTER><MEAN_ANOMALY>217.5412</MEAN_ANOMALY></meanElements><tleParameters><EPHEMERIS_TYPE>0</EPHEMERIS_TYPE><CLASSIFICATION_TYPE>U</CLASSIFICATION_TYPE><NORAD_CAT_ID>25986</NORAD_CAT_ID><ELEMENT_SET_NO>999</ELEMENT_SET_NO><REV_AT_EPOCH>29828</REV_AT_EPOCH><BSTAR>.24149E-2</BSTAR><MEAN_MOTION_DOT>.6926E-4</MEAN_MOTION_DOT><MEAN_MOTION_DDOT>0</MEAN_MOTION_DDOT></tleParameters></data></segment></body></omm>
<omm id="CCSDS_OMM_VERS" version="2.0">
<header><CREATION_DATE/><ORIGINATOR/></header><body><segment><metadata><OBJECT_NAME>ORBCOMM FM38</OBJECT_NAME><OBJECT_ID>2008-031A</OBJECT_ID><CENTER_NAME>EARTH</CENTER_NAME><REF_FRAME>TEME</REF_FRAME><TIME_SYSTEM>UTC</TIME_SYSTEM><MEAN_ELEMENT_THEORY>SGP4</MEAN_ELEMENT_THEORY></metadata><data><meanElements><EPOCH>2024-10-05T11:21:42.830496</EPOCH><MEAN_MOTION>14.78913265</MEAN_MOTION><ECCENTRICITY>.0004546</ECCENTRICITY><INCLINATION>48.4392</INCLINATION><RA_OF_ASC_NODE>87.2027</RA_OF_ASC_NODE><ARG_OF_PERICENTER>18.4635</ARG_OF_PERICENTER><MEAN_ANOMALY>341.6444</MEAN_ANOMALY></meanElements><tleParameters><EPHEMERIS_TYPE>0</EPHEMERIS_TYPE><CLASSIFICATION_TYPE>U</CLASSIFICATION_TYPE><NORAD_CAT_ID>33060</NORAD_CAT_ID><ELEMENT_SET_NO>999</ELEMENT_SET_NO><REV_AT_EPOCH>87701</REV_AT_EPOCH><BSTAR>.15651E-2</BSTAR><MEAN_MOTION_DOT>.11475E-3</MEAN_MOTION_DOT><MEAN_MOTION_DDOT>0</MEAN_MOTION_DDOT></tleParameters></data></segment></body></omm>
<omm id="CCSDS_OMM_VERS" version="2.0">
<header><CREATION_DATE/><ORIGINATOR/></header><body><segment><metadata><OBJECT_NAME>ORBCOMM FM41</OBJECT_NAME><OBJECT_ID>2008-031B</OBJECT_ID><CENTER_NAME>EARTH</CENTER_NAME><REF_FRAME>TEME</REF_FRAME><TIME_SYSTEM>UTC</TIME_SYSTEM><MEAN_ELEMENT_THEORY>SGP4</MEAN_ELEMENT_THEORY></metadata><data><meanElements><EPOCH>2024-10-05T13:26:34.659168</EPOCH><MEAN_MOTION>14.78607261</MEAN_MOTION><ECCENTRICITY>.0003897</ECCENTRICITY><INCLINATION>48.4423</INCLINATION><RA_OF_ASC_NODE>93.7703</RA_OF_ASC_NODE><ARG_OF_PERICENTER>1.3307</ARG_OF_PERICENTER><MEAN_ANOMALY>67.9155</MEAN_ANOMALY></meanElements><tleParameters><EPHEMERIS_TYPE>0</EPHEMERIS_TYPE><CLASSIFICATION_TYPE>U</CLASSIFICATION_TYPE><NORAD_CAT_ID>33061</NORAD_CAT_ID><ELEMENT_SET_NO>999</ELEMENT_SET_NO><REV_AT_EPOCH>87652</REV_AT_EPOCH><BSTAR>.12248E-2</BSTAR><MEAN_MOTION_DOT>.8865E-4</MEAN_MOTION_DOT><MEAN_MOTION_DDOT>0</MEAN_MOTION_DDOT></tleParameters></data></segment></body></omm>
<omm id="CCSDS_OMM_VERS" version="2.0">
<header><CREATION_DATE/><ORIGINATOR/></header><body><segment><metadata><OBJECT_NAME>ORBCOMM FM29</OBJECT_NAME><OBJECT_ID>2008-031C</OBJECT_ID><CENTER_NAME>EARTH</CENTER_NAME><REF_FRAME>TEME</REF_FRAME><TIME_SYSTEM>UTC</TIME_SYSTEM><MEAN_ELEMENT_THEORY>SGP4</MEAN_ELEMENT_THEORY></metadata><data><meanElements><EPOCH>2024-10-05T11:25:48.561600</EPOCH><MEAN_MOTION>14.78591595</MEAN_MOTION><ECCENTRICITY>.0005673</ECCENTRICITY><INCLINATION>48.4373</INCLINATION><RA_OF_ASC_NODE>102.1913</RA_OF_ASC_NODE><ARG_OF_PERICENTER>3.2896</ARG_OF_PERICENTER><MEAN_ANOMALY>15.7767</MEAN_ANOMALY></meanElements><tleParameters><EPHEMERIS_TYPE>0</EPHEMERIS_TYPE><CLASSIFICATION_TYPE>U</CLASSIFICATION_TYPE><NORAD_CAT_ID>33062</NORAD_CAT_ID><ELEMENT_SET_NO>999</ELEMENT_SET_NO><REV_AT_EPOCH>87642</REV_AT_EPOCH><BSTAR>.15068E-2</BSTAR><MEAN_MOTION_DOT>.10955E-3</MEAN_MOTION_DOT><MEAN_MOTION_DDOT>0</MEAN_MOTION_DDOT></tleParameters></data></segment></body></omm>
<omm id="CCSDS_OMM_VERS" version="2.0">
<header><CREATION_DATE/><ORIGINATOR/></header><body><segment><metadata><OBJECT_NAME>ORBCOMM FM39</OBJECT_NAME><OBJECT_ID>2008-031D</OBJECT_ID><CENTER_NAME>EARTH</CENTER_NAME><REF_FRAME>TEME</REF_FRAME><TIME_SYSTEM>UTC</TIME_SYSTEM><MEAN_ELEMENT_THEORY>SGP4</MEAN_ELEMENT_THEORY></metadata><data><meanElements><EPOCH>2024-10-05T13:05:29.908320</EPOCH><MEAN_MOTION>14.77430028</MEAN_MOTION><ECCENTRICITY>.0006813</ECCENTRICITY><INCLINATION>48.4386</INCLINATION><RA_OF_ASC_NODE>123.5805</RA_OF_ASC_NODE><ARG_OF_PERICENTER>338.8396</ARG_OF_PERICENTER><MEAN_ANOMALY>21.2235</MEAN_ANOMALY></meanElements><tleParameters><EPHEMERIS_TYPE>0</EPHEMERIS_TYPE><CLASSIFICATION_TYPE>U</CLASSIFICATION_TYPE><NORAD_CAT_ID>33063</NORAD_CAT_ID><ELEMENT_SET_NO>999</ELEMENT_SET_NO><REV_AT_EPOCH>87611</REV_AT_EPOCH><BSTAR>.12177E-2</BSTAR><MEAN_MOTION_DOT>.8568E-4</MEAN_MOTION_DOT><MEAN_MOTION_DDOT>0</MEAN_MOTION_DDOT></tleParameters></data></segment></body></omm>

</ndm>
